#aV2016  4 14  0  0  0.00000000     288 DD+AD WGS84 FIT  NGA
## 1892 345600.00000000   300.00000000 57492 0.0000000000000
+   31     1  2  3  5  6  7  8  9 10 11 12 13 14 15 16 17 18
+         19 20 21 22 23 24 25 26 27 28 29 30 31 32  0  0  0
+          0  0  0  0  0  0  0  0  0  0  0  0  0  0  0  0  0
+          0  0  0  0  0  0  0  0  0  0  0  0  0  0  0  0  0
+          0  0  0  0  0  0  0  0  0  0  0  0  0  0  0  0  0
++         2  2  2  2  2  2  2  2  2  2  2  2  2  2  2  2  2
++         2  2  2  2  2  2  2  2  2  2  2  2  2  2  0  0  0
++         0  0  0  0  0  0  0  0  0  0  0  0  0  0  0  0  0
++         0  0  0  0  0  0  0  0  0  0  0  0  0  0  0  0  0
++         0  0  0  0  0  0  0  0  0  0  0  0  0  0  0  0  0
%c cc cc ccc ccc cccc cccc cccc cccc ccccc ccccc ccccc ccccc
%c cc cc ccc ccc cccc cccc cccc cccc ccccc ccccc ccccc ccccc
%f  0.0000000  0.000000000  0.00000000000  0.000000000000000
%f  0.0000000  0.000000000  0.00000000000  0.000000000000000
%i    0    0    0    0      0      0      0      0         0
%i    0    0    0    0      0      0      0      0         0
/*      NGA, ST. LOUIS,MO.                                  
/*   EPHEMERIS COMPUTED FROM 2 DAYS OF DATA                 
/*   EPOCHA v2.4 SMOOTHER                                   
/*   G1762 IERS2010 SATAF SATAPC                            
*  2016  4 14  1 20  0.00000000
P  1  15034.638036  -2142.982766  21724.683783     17.262951                    
V  1   6959.805964  26856.389497  -1935.267977      0.011380                    
P  2 -14359.979137 -19499.836244 -10923.806331    597.175454                    
V  2  -1660.090920 -14579.799477  26736.211222     -0.018234                    
P  3  21656.683019 -11024.652531  10735.750231    -47.207431                    
V  3  -7875.724341  11391.020790  27587.888917     -0.040997                    
P  5 -14411.303278  -7133.331939 -21232.315744   -129.167676                    
V  5  18386.250541 -19542.412223  -5736.248857      0.031931                    
P  6  -5807.031033 -25864.346115   1674.531541    175.356339                    
V  6   3181.845318   1322.720055  31723.919909      0.056681                    
P  7   7713.632829 -18426.484581 -17167.200694    460.230983                    
V  7   7086.291059  21123.078578 -19729.551566     -0.020490                    
P  8  25943.007387   5551.835401   1654.128235    -31.283336                    
V  8   1282.695599   3143.016420 -31686.909348     -0.014945                    
P  9  15244.577311 -10118.842859 -19274.790873    109.413649                    
V  9  23324.543015   7458.170482  14529.611778      0.074420                    
P 10  -6284.980471  21097.020882  14833.795485      2.595477                    
V 10 -14769.326224  11879.712995 -23238.508218     -0.096582                    
P 11  19196.482790   2311.424928  17676.817428   -640.654867                    
V 11  11971.716295  20722.986859 -15194.410367     -0.014456                    
P 12 -21406.780519   7288.253912  13623.437006    376.210123                    
V 12  11912.757234 -12988.200080  25644.027027      0.013860                    
P 13 -22628.369821 -12795.648433  -5342.197355    -10.728314                    
V 13   7060.338064    136.987500 -31093.544596     -0.027084                    
P 14   3967.459043  16578.051585  20664.773433     -8.209435                    
V 14 -24436.486578  -7714.793625  10861.310980     -0.021361                    
P 15 -26246.929308  -1837.536495   4672.790648   -306.342184                    
V 15  -5251.058258  -4527.739622 -30117.584479     -0.017481                    
P 16  12927.061568   7836.158618 -21981.040517    -24.763960                    
V 16 -20700.474100  18163.584431  -5344.334062      0.027641                    
P 17  -1361.547208 -15802.213054  21663.364663   -203.081962                    
V 17  25534.608965   7656.686763   7120.691531     -0.003136                    
P 18 -14926.776844  21346.009948   4943.866989    504.403199                    
V 18  -6817.119246   1427.589914 -30262.729706      0.041378                    
P 19 -11895.034841 -16493.993846  16639.886431   -525.614565                    
V 19  20997.879864   5791.042736  20836.719361     -0.000687                    
P 20 -20999.595027   8441.959963 -14090.685287    405.802147                    
V 20   9260.929975 -15365.544903 -23208.812651      0.024458                    
P 21  -4442.322214  21462.565449 -14069.314351   -518.956386                    
V 21  -8456.751567 -17646.084857 -23297.914235     -0.014794                    
P 22  19590.834328   -685.160259  18248.046176    363.090773                    
V 22 -14180.163526  17887.635588  15949.813606     -0.073529                    
P 23  23631.837006  -2726.461384 -12074.593734   -169.268190                    
V 23  14340.232180   6332.590908  25800.431158     -0.017330                    
P 24 -16091.518976  -1322.439692  21059.997371    -15.454139                    
V 24  -6979.430668 -25968.473636  -6752.777615     -0.006063                    
P 25 -20064.561715  16900.694765   3293.909848   -152.593674                    
V 25   1380.089933  -4767.793251  31913.195164     -0.070813                    
P 26   4266.020518  16194.831451 -20607.554176   -329.458832                    
V 26 -19032.989439  17987.963350  10244.138847     -0.135976                    
P 27  22164.106655  11971.052617  -8706.587744     81.951739                    
V 27 -11148.005493   -692.605565 -29257.058514      0.038792                    
P 28   8557.835295 -20493.785686  15159.003439    516.013043                    
V 28  14540.490554 -10866.072561 -23942.844909      0.026108                    
P 29 -18253.164283   6827.028345 -18009.728494    656.872861                    
V 29 -21320.617089  -8394.831788  18457.891985      0.002038                    
P 30   1669.785858 -24874.121793  -9038.215040    116.400504                    
V 30   5039.269857  10733.854561 -28731.849902      0.035094                    
P 31   6653.827120  25483.297612   -998.816718    273.858663                    
V 31  -2403.124698   2004.615432  32197.042284     -0.017933                    
P 32   4577.600524  16108.072411  20620.218310      5.723729                    
V 32 -25558.584462  -5728.149874  10143.541537     -0.030940                    
EOF
